{
  "type": "FeatureCollection",
  "features": [
    {
      "type": "Feature",
      "properties": {
        "norad_id": 40362,
        "name": "YAOGAN-26",
        "group": "resource",
        "lat": -43.485132440183236,
        "lon": 155.42727326521077,
        "alt_km": 460.4836211021502,
        "timestamp": "2025-12-07T07:31:35.960129+00:00",
        "meta_object_name": "YAOGAN-26",
        "meta_object_id": "2014-088A",
        "meta_epoch": "2025-12-06T22:45:17.942976",
        "meta_mean_motion": 15.38997477,
        "meta_eccentricity": 0.00069096,
        "meta_inclination": 97.064,
        "meta_ra_of_asc_node": 341.8295,
        "meta_arg_of_pericenter": 45.9002,
        "meta_mean_anomaly": 314.2812,
        "meta_ephemeris_type": 0,
        "meta_classification_type": "U",
        "meta_norad_cat_id": 40362,
        "meta_element_set_no": 999,
        "meta_rev_at_epoch": 60805,
        "meta_bstar": 0.0006960966,
        "meta_mean_motion_dot": 0.00026879,
        "meta_mean_motion_ddot": 0,
        "tle_line1": "1 40362U 14088A   25340.94812434  .00026879  00000+0  69610-3 0  9991",
        "tle_line2": "2 40362  97.0640 341.8295 0006909  45.9002 314.2812 15.38997477608059"
      },
      "geometry": {
        "type": "Point",
        "coordinates": [
          155.42727326521077,
          -43.485132440183236
        ]
      }
    },
    {
      "type": "Feature",
      "properties": {
        "norad_id": 40376,
        "name": "SMAP",
        "group": "resource",
        "lat": 28.67435257759435,
        "lon": 170.59906090765477,
        "alt_km": 680.7415220228067,
        "timestamp": "2025-12-07T07:31:35.960139+00:00",
        "meta_object_name": "SMAP",
        "meta_object_id": "2015-003A",
        "meta_epoch": "2025-12-06T22:38:02.641632",
        "meta_mean_motion": 14.63333652,
        "meta_eccentricity": 0.00012075,
        "meta_inclination": 98.129,
        "meta_ra_of_asc_node": 345.7505,
        "meta_arg_of_pericenter": 87.9116,
        "meta_mean_anomaly": 272.2224,
        "meta_ephemeris_type": 0,
        "meta_classification_type": "U",
        "meta_norad_cat_id": 40376,
        "meta_element_set_no": 999,
        "meta_rev_at_epoch": 57950,
        "meta_bstar": 0.0002117859,
        "meta_mean_motion_dot": 1.047e-05,
        "meta_mean_motion_ddot": 0,
        "tle_line1": "1 40376U 15003A   25340.94308613  .00001047  00000+0  21179-3 0  9991",
        "tle_line2": "2 40376  98.1290 345.7505 0001207  87.9116 272.2224 14.63333652579505"
      },
      "geometry": {
        "type": "Point",
        "coordinates": [
          170.59906090765477,
          28.67435257759435
        ]
      }
    },
    {
      "type": "Feature",
      "properties": {
        "norad_id": 40536,
        "name": "KOMPSAT-3A",
        "group": "resource",
        "lat": 71.76828850339308,
        "lon": -68.81737611441268,
        "alt_km": 427.17125932297586,
        "timestamp": "2025-12-07T07:31:35.960150+00:00",
        "meta_object_name": "KOMPSAT-3A",
        "meta_object_id": "2015-014A",
        "meta_epoch": "2025-12-06T21:52:30.383328",
        "meta_mean_motion": 15.4363286,
        "meta_eccentricity": 0.00042335,
        "meta_inclination": 97.6784,
        "meta_ra_of_asc_node": 314.9375,
        "meta_arg_of_pericenter": 138.9718,
        "meta_mean_anomaly": 221.1849,
        "meta_ephemeris_type": 0,
        "meta_classification_type": "U",
        "meta_norad_cat_id": 40536,
        "meta_element_set_no": 999,
        "meta_rev_at_epoch": 59205,
        "meta_bstar": 0.00060226983,
        "meta_mean_motion_dot": 0.00027087,
        "meta_mean_motion_ddot": 0,
        "tle_line1": "1 40536U 15014A   25340.91146277  .00027087  00000+0  60227-3 0  9993",
        "tle_line2": "2 40536  97.6784 314.9375 0004233 138.9718 221.1849 15.43632860592058"
      },
      "geometry": {
        "type": "Point",
        "coordinates": [
          -68.81737611441268,
          71.76828850339308
        ]
      }
    },
    {
      "type": "Feature",
      "properties": {
        "norad_id": 40697,
        "name": "SENTINEL-2A",
        "group": "resource",
        "lat": -65.20208749468439,
        "lon": 72.97327440570878,
        "alt_km": 796.8701554274812,
        "timestamp": "2025-12-07T07:31:35.960160+00:00",
        "meta_object_name": "SENTINEL-2A",
        "meta_object_id": "2015-028A",
        "meta_epoch": "2025-12-06T21:46:04.112256",
        "meta_mean_motion": 14.30823828,
        "meta_eccentricity": 0.00010298,
        "meta_inclination": 98.57,
        "meta_ra_of_asc_node": 53.5229,
        "meta_arg_of_pericenter": 94.4541,
        "meta_mean_anomaly": 265.676,
        "meta_ephemeris_type": 0,
        "meta_classification_type": "U",
        "meta_norad_cat_id": 40697,
        "meta_element_set_no": 999,
        "meta_rev_at_epoch": 54623,
        "meta_bstar": 0.00013403582,
        "meta_mean_motion_dot": 3.08e-06,
        "meta_mean_motion_ddot": 0,
        "tle_line1": "1 40697U 15028A   25340.90699204  .00000308  00000+0  13404-3 0  9990",
        "tle_line2": "2 40697  98.5700  53.5229 0001029  94.4541 265.6760 14.30823828546233"
      },
      "geometry": {
        "type": "Point",
        "coordinates": [
          72.97327440570878,
          -65.20208749468439
        ]
      }
    },
    {
      "type": "Feature",
      "properties": {
        "norad_id": 40701,
        "name": "GAOFEN-8",
        "group": "resource",
        "lat": 41.23928419461987,
        "lon": 152.38684582357342,
        "alt_km": 451.29777955859936,
        "timestamp": "2025-12-07T07:31:35.960170+00:00",
        "meta_object_name": "GAOFEN-8",
        "meta_object_id": "2015-030A",
        "meta_epoch": "2025-12-06T21:58:42.525408",
        "meta_mean_motion": 15.38258498,
        "meta_eccentricity": 0.00113732,
        "meta_inclination": 97.6909,
        "meta_ra_of_asc_node": 158.7737,
        "meta_arg_of_pericenter": 158.5654,
        "meta_mean_anomaly": 201.6069,
        "meta_ephemeris_type": 0,
        "meta_classification_type": "U",
        "meta_norad_cat_id": 40701,
        "meta_element_set_no": 999,
        "meta_rev_at_epoch": 58181,
        "meta_bstar": 0.00068851696,
        "meta_mean_motion_dot": 0.00025978,
        "meta_mean_motion_ddot": 0,
        "tle_line1": "1 40701U 15030A   25340.91576997  .00025978  00000+0  68852-3 0  9990",
        "tle_line2": "2 40701  97.6909 158.7737 0011373 158.5654 201.6069 15.38258498581811"
      },
      "geometry": {
        "type": "Point",
        "coordinates": [
          152.38684582357342,
          41.23928419461987
        ]
      }
    },
    {
      "type": "Feature",
      "properties": {
        "norad_id": 40718,
        "name": "CARBONITE 1 (CBNT-1)",
        "group": "resource",
        "lat": -20.331770062462276,
        "lon": 165.4478261191475,
        "alt_km": 633.5714611067342,
        "timestamp": "2025-12-07T07:31:35.960179+00:00",
        "meta_object_name": "CARBONITE 1 (CBNT-1)",
        "meta_object_id": "2015-032D",
        "meta_epoch": "2025-12-06T21:54:04.496256",
        "meta_mean_motion": 14.8270168,
        "meta_eccentricity": 0.00140338,
        "meta_inclination": 97.6402,
        "meta_ra_of_asc_node": 162.2136,
        "meta_arg_of_pericenter": 200.9118,
        "meta_mean_anomaly": 159.1524,
        "meta_ephemeris_type": 0,
        "meta_classification_type": "U",
        "meta_norad_cat_id": 40718,
        "meta_element_set_no": 999,
        "meta_rev_at_epoch": 56084,
        "meta_bstar": 0.00051895986,
        "meta_mean_motion_dot": 4.145e-05,
        "meta_mean_motion_ddot": 0,
        "tle_line1": "1 40718U 15032D   25340.91255204  .00004145  00000+0  51896-3 0  9998",
        "tle_line2": "2 40718  97.6402 162.2136 0014033 200.9118 159.1524 14.82701680560840"
      },
      "geometry": {
        "type": "Point",
        "coordinates": [
          165.4478261191475,
          -20.331770062462276
        ]
      }
    },
    {
      "type": "Feature",
      "properties": {
        "norad_id": 40878,
        "name": "YAOGAN-27",
        "group": "resource",
        "lat": 47.14253963487254,
        "lon": -39.896059834773276,
        "alt_km": 1197.2906584025586,
        "timestamp": "2025-12-07T07:31:35.960190+00:00",
        "meta_object_name": "YAOGAN-27",
        "meta_object_id": "2015-040A",
        "meta_epoch": "2025-12-06T22:09:37.604160",
        "meta_mean_motion": 13.16060014,
        "meta_eccentricity": 0.00076855,
        "meta_inclination": 100.1007,
        "meta_ra_of_asc_node": 330.8066,
        "meta_arg_of_pericenter": 301.0322,
        "meta_mean_anomaly": 59.0037,
        "meta_ephemeris_type": 0,
        "meta_classification_type": "U",
        "meta_norad_cat_id": 40878,
        "meta_element_set_no": 999,
        "meta_rev_at_epoch": 49237,
        "meta_bstar": 0.00013981909,
        "meta_mean_motion_dot": 1.1e-07,
        "meta_mean_motion_ddot": 0,
        "tle_line1": "1 40878U 15040A   25340.92335190  .00000011  00000+0  13982-3 0  9990",
        "tle_line2": "2 40878 100.1007 330.8066 0007685 301.0322  59.0037 13.16060014492372"
      },
      "geometry": {
        "type": "Point",
        "coordinates": [
          -39.896059834773276,
          47.14253963487254
        ]
      }
    }
  ]
}